TEVEL2-7                
1 63238U 25052AE  26068.66113295  .00019244  00000+0  69668-3 0  9998
2 63238  97.4054 324.3041 0008105 124.6830 235.5175 15.28414096 54803
STARLINK-36424          
1 67419U 26005R   26068.78765464  .00033581  00000+0  11932-2 0  9996
2 67419  43.0032 237.2444 0002963 280.8187  79.2331 15.28420197  8711
