[{"OBJECT_NAME":"TEVEL2-7","OBJECT_ID":"2025-052AE","EPOCH":"2026-03-09T15:52:01.887744","MEAN_MOTION":15.28414096,"ECCENTRICITY":0.00081048,"INCLINATION":97.4054,"RA_OF_ASC_NODE":324.3041,"ARG_OF_PERICENTER":124.683,"MEAN_ANOMALY":235.5175,"EPHEMERIS_TYPE":0,"CLASSIFICATION_TYPE":"U","NORAD_CAT_ID":63238,"ELEMENT_SET_NO":999,"REV_AT_EPOCH":5480,"BSTAR":0.00069668191,"MEAN_MOTION_DOT":0.00019244,"MEAN_MOTION_DDOT":0},{"OBJECT_NAME":"STARLINK-36424","OBJECT_ID":"2026-005R","EPOCH":"2026-03-09T18:54:13.361760","MEAN_MOTION":15.28420197,"ECCENTRICITY":0.00029627,"INCLINATION":43.0032,"RA_OF_ASC_NODE":237.2444,"ARG_OF_PERICENTER":280.8187,"MEAN_ANOMALY":79.2331,"EPHEMERIS_TYPE":0,"CLASSIFICATION_TYPE":"U","NORAD_CAT_ID":67419,"ELEMENT_SET_NO":999,"REV_AT_EPOCH":871,"BSTAR":0.0011932429,"MEAN_MOTION_DOT":0.00033581,"MEAN_MOTION_DDOT":0}]
